start=new Date('2022-12-09T00:00:00.000Z').valueOf();
sats=[{"FILE":"3684805","ELEMENT_SET_NO":"999","ECCENTRICITY":"0.00012910","OBJECT_NAME":"STARLINK-1946","OBJECT_ID":"2020-074AP","MEAN_MOTION_DDOT":"0.0000000000000","SITE":"AFETR","BSTAR":"0.00025305000000","RCS_SIZE":"LARGE","TLE_LINE2":"2 46776  53.0447 170.1802 0001291 130.3115 229.8018 15.76809086118562","APOAPSIS":"340.357","ARG_OF_PERICENTER":"130.3115","TIME_SYSTEM":"UTC","REV_AT_EPOCH":"11856","DECAY_DATE":null,"MEAN_MOTION":"15.76809086","CLASSIFICATION_TYPE":"U","TLE_LINE1":"1 46776U 20074AP  22342.54938435  .00041113  00000-0  25305-3 0  9995","COUNTRY_CODE":"US","SEMIMAJOR_AXIS":"6717.625","INCLINATION":"53.0447","MEAN_ELEMENT_THEORY":"SGP4","RA_OF_ASC_NODE":"170.1802","PERIOD":"91.324","CENTER_NAME":"EARTH","LAUNCH_DATE":"2020-10-24","EPHEMERIS_TYPE":"0","NORAD_CAT_ID":"46776","OBJECT_TYPE":"PAYLOAD","PERIAPSIS":"338.623","EPOCH":"2022-12-08T13:11:06.807840","MEAN_ANOMALY":"229.8018","MEAN_MOTION_DOT":"0.00041113","REF_FRAME":"TEME","GP_ID":"219783410"},{"TLE_LINE1":"1 46779U 20074AS  22342.43209420  .00021179  00000-0  14349-2 0  9996","REV_AT_EPOCH":"11758","DECAY_DATE":null,"CLASSIFICATION_TYPE":"U","MEAN_MOTION":"15.06439188","ARG_OF_PERICENTER":"294.0363","APOAPSIS":"547.351","TIME_SYSTEM":"UTC","BSTAR":"0.00143490000000","TLE_LINE2":"2 46779  53.0537 241.4342 0000372 294.0363  66.0587 15.06439188117586","RCS_SIZE":"LARGE","SITE":"AFETR","OBJECT_ID":"2020-074AS","MEAN_MOTION_DDOT":"0.0000000000000","ECCENTRICITY":"0.00003720","ELEMENT_SET_NO":"999","OBJECT_NAME":"STARLINK-1798","FILE":"3684728","GP_ID":"219781502","REF_FRAME":"TEME","MEAN_MOTION_DOT":"0.00021179","MEAN_ANOMALY":"66.0587","PERIAPSIS":"546.836","EPOCH":"2022-12-08T10:22:12.938880","EPHEMERIS_TYPE":"0","LAUNCH_DATE":"2020-10-24","NORAD_CAT_ID":"46779","OBJECT_TYPE":"PAYLOAD","CENTER_NAME":"EARTH","INCLINATION":"53.0537","COUNTRY_CODE":"US","SEMIMAJOR_AXIS":"6925.228","RA_OF_ASC_NODE":"241.4342","PERIOD":"95.590","MEAN_ELEMENT_THEORY":"SGP4"},{"CLASSIFICATION_TYPE":"U","DECAY_DATE":null,"MEAN_MOTION":"15.06404588","REV_AT_EPOCH":"11759","TLE_LINE1":"1 46780U 20074AT  22342.42104657  .00005000  00000-0  35426-3 0  9998","TLE_LINE2":"2 46780  53.0547 241.4860 0001891  50.6717 309.4439 15.06404588117597","RCS_SIZE":"LARGE","BSTAR":"0.00035426000000","TIME_SYSTEM":"UTC","APOAPSIS":"548.509","ARG_OF_PERICENTER":"50.6717","MEAN_MOTION_DDOT":"0.0000000000000","OBJECT_ID":"2020-074AT","SITE":"AFETR","FILE":"3684728","OBJECT_NAME":"STARLINK-1832","ELEMENT_SET_NO":"999","ECCENTRICITY":"0.00018910","GP_ID":"219781856","MEAN_MOTION_DOT":"0.00005000","REF_FRAME":"TEME","OBJECT_TYPE":"PAYLOAD","NORAD_CAT_ID":"46780","LAUNCH_DATE":"2020-10-24","EPHEMERIS_TYPE":"0","PERIAPSIS":"545.890","EPOCH":"2022-12-08T10:06:18.423648","MEAN_ANOMALY":"309.4439","MEAN_ELEMENT_THEORY":"SGP4","RA_OF_ASC_NODE":"241.4860","PERIOD":"95.592","SEMIMAJOR_AXIS":"6925.334","COUNTRY_CODE":"US","INCLINATION":"53.0547","CENTER_NAME":"EARTH"},{"APOAPSIS":"548.320","ARG_OF_PERICENTER":"66.6958","TIME_SYSTEM":"UTC","BSTAR":"0.00039925000000","TLE_LINE2":"2 46781  53.0536 252.5954 0001638  66.6958 293.4203 15.06409209117693","RCS_SIZE":"LARGE","TLE_LINE1":"1 46781U 20074AU  22342.17316834  .00005672  00000-0  39925-3 0  9996","REV_AT_EPOCH":"11769","DECAY_DATE":null,"MEAN_MOTION":"15.06409209","CLASSIFICATION_TYPE":"U","ELEMENT_SET_NO":"999","ECCENTRICITY":"0.00016380","OBJECT_NAME":"STARLINK-1834","FILE":"3684614","SITE":"AFETR","OBJECT_ID":"2020-074AU","MEAN_MOTION_DDOT":"0.0000000000000","REF_FRAME":"TEME","MEAN_MOTION_DOT":"0.00005672","GP_ID":"219771768","CENTER_NAME":"EARTH","SEMIMAJOR_AXIS":"6925.320","COUNTRY_CODE":"US","INCLINATION":"53.0536","MEAN_ELEMENT_THEORY":"SGP4","RA_OF_ASC_NODE":"252.5954","PERIOD":"95.592","PERIAPSIS":"546.051","MEAN_ANOMALY":"293.4203","EPOCH":"2022-12-08T04:09:21.744576","LAUNCH_DATE":"2020-10-24","EPHEMERIS_TYPE":"0","OBJECT_TYPE":"PAYLOAD","NORAD_CAT_ID":"46781"},{"FILE":"3684728","OBJECT_NAME":"STARLINK-1835","ECCENTRICITY":"0.00017460","ELEMENT_SET_NO":"999","MEAN_MOTION_DDOT":"0.0000000000000","OBJECT_ID":"2020-074AV","SITE":"AFETR","RCS_SIZE":"LARGE","TLE_LINE2":"2 46782  53.0537 242.7231 0001746  59.9679 300.1483 15.06395016117549","BSTAR":"0.00008514900000","TIME_SYSTEM":"UTC","ARG_OF_PERICENTER":"59.9679","APOAPSIS":"548.438","DECAY_DATE":null,"MEAN_MOTION":"15.06395016","CLASSIFICATION_TYPE":"U","REV_AT_EPOCH":"11754","TLE_LINE1":"1 46782U 20074AV  22342.14460367  .00000987  00000-0  85149-4 0  9999","RA_OF_ASC_NODE":"242.7231","PERIOD":"95.592","MEAN_ELEMENT_THEORY":"SGP4","INCLINATION":"53.0537","SEMIMAJOR_AXIS":"6925.364","COUNTRY_CODE":"US","CENTER_NAME":"EARTH","OBJECT_TYPE":"PAYLOAD","NORAD_CAT_ID":"46782","EPHEMERIS_TYPE":"0","LAUNCH_DATE":"2020-10-24","EPOCH":"2022-12-08T03:28:13.757088","PERIAPSIS":"546.020","MEAN_ANOMALY":"300.1483","MEAN_MOTION_DOT":"0.00000987","REF_FRAME":"TEME","GP_ID":"219781863"},{"TIME_SYSTEM":"UTC","ARG_OF_PERICENTER":"56.9430","APOAPSIS":"548.385","RCS_SIZE":"LARGE","TLE_LINE2":"2 46783  53.0539 241.4605 0001743  56.9430 303.1726 15.06411713117593","BSTAR":"0.00013139000000","TLE_LINE1":"1 46783U 20074AW  22342.42472639  .00001677  00000-0  13139-3 0  9992","MEAN_MOTION":"15.06411713","DECAY_DATE":null,"CLASSIFICATION_TYPE":"U","REV_AT_EPOCH":"11759","OBJECT_NAME":"STARLINK-1851","ECCENTRICITY":"0.00017430","ELEMENT_SET_NO":"999","FILE":"3684729","SITE":"AFETR","MEAN_MOTION_DDOT":"0.0000000000000","OBJECT_ID":"2020-074AW","REF_FRAME":"TEME","MEAN_MOTION_DOT":"0.00001677","GP_ID":"219781523","CENTER_NAME":"EARTH","RA_OF_ASC_NODE":"241.4605","PERIOD":"95.591","MEAN_ELEMENT_THEORY":"SGP4","INCLINATION":"53.0539","COUNTRY_CODE":"US","SEMIMAJOR_AXIS":"6925.313","PERIAPSIS":"545.971","MEAN_ANOMALY":"303.1726","EPOCH":"2022-12-08T10:11:36.360096","OBJECT_TYPE":"PAYLOAD","NORAD_CAT_ID":"46783","EPHEMERIS_TYPE":"0","LAUNCH_DATE":"2020-10-24"},{"FILE":"3684614","ECCENTRICITY":"0.00003800","ELEMENT_SET_NO":"999","OBJECT_NAME":"STARLINK-1882","OBJECT_ID":"2020-074AX","MEAN_MOTION_DDOT":"0.0000000000000","SITE":"AFETR","BSTAR":"0.00056360000000","RCS_SIZE":"LARGE","TLE_LINE2":"2 46784  53.0552 241.4309 0000380 333.0790  27.0179 15.06425509117866","ARG_OF_PERICENTER":"333.0790","APOAPSIS":"547.399","TIME_SYSTEM":"UTC","REV_AT_EPOCH":"11786","CLASSIFICATION_TYPE":"U","DECAY_DATE":null,"MEAN_MOTION":"15.06425509","TLE_LINE1":"1 46784U 20074AX  22342.42745521  .00008129  00000-0  56360-3 0  9998","INCLINATION":"53.0552","COUNTRY_CODE":"US","SEMIMAJOR_AXIS":"6925.270","RA_OF_ASC_NODE":"241.4309","PERIOD":"95.591","MEAN_ELEMENT_THEORY":"SGP4","CENTER_NAME":"EARTH","EPHEMERIS_TYPE":"0","LAUNCH_DATE":"2020-10-24","OBJECT_TYPE":"PAYLOAD","NORAD_CAT_ID":"46784","PERIAPSIS":"546.872","MEAN_ANOMALY":"27.0179","EPOCH":"2022-12-08T10:15:32.130144","MEAN_MOTION_DOT":"0.00008129","REF_FRAME":"TEME","GP_ID":"219773511"},{"MEAN_MOTION_DOT":"0.00000674","REF_FRAME":"TEME","GP_ID":"219772269","PERIOD":"95.592","RA_OF_ASC_NODE":"242.6962","MEAN_ELEMENT_THEORY":"SGP4","INCLINATION":"53.0547","COUNTRY_CODE":"US","SEMIMAJOR_AXIS":"6925.351","CENTER_NAME":"EARTH","NORAD_CAT_ID":"46785","OBJECT_TYPE":"PAYLOAD","EPHEMERIS_TYPE":"0","LAUNCH_DATE":"2020-10-24","PERIAPSIS":"546.096","MEAN_ANOMALY":"292.5154","EPOCH":"2022-12-08T03:33:32.066784","TLE_LINE2":"2 46785  53.0547 242.6962 0001617  67.6006 292.5154 15.06399100117828","RCS_SIZE":"LARGE","BSTAR":"0.00006414600000","TIME_SYSTEM":"UTC","ARG_OF_PERICENTER":"67.6006","APOAPSIS":"548.336","DECAY_DATE":null,"CLASSIFICATION_TYPE":"U","MEAN_MOTION":"15.06399100","REV_AT_EPOCH":"11782","TLE_LINE1":"1 46785U 20074AY  22342.14828781  .00000674  00000-0  64146-4 0  9997","FILE":"3684614","OBJECT_NAME":"STARLINK-1883","ECCENTRICITY":"0.00016170","ELEMENT_SET_NO":"999","MEAN_MOTION_DDOT":"0.0000000000000","OBJECT_ID":"2020-074AY","SITE":"AFETR"},{"MEAN_ELEMENT_THEORY":"SGP4","PERIOD":"95.592","RA_OF_ASC_NODE":"221.6106","COUNTRY_CODE":"US","SEMIMAJOR_AXIS":"6925.324","INCLINATION":"53.0542","CENTER_NAME":"EARTH","NORAD_CAT_ID":"46786","OBJECT_TYPE":"PAYLOAD","LAUNCH_DATE":"2020-10-24","EPHEMERIS_TYPE":"0","PERIAPSIS":"546.122","EPOCH":"2022-12-08T09:26:29.982912","MEAN_ANOMALY":"286.7626","MEAN_MOTION_DOT":"0.00002052","REF_FRAME":"TEME","GP_ID":"219785551","FILE":"3684886","OBJECT_NAME":"STARLINK-1893","ELEMENT_SET_NO":"999","ECCENTRICITY":"0.00015420","MEAN_MOTION_DDOT":"0.0000000000000","OBJECT_ID":"2020-074AZ","SITE":"AFETR","RCS_SIZE":"LARGE","TLE_LINE2":"2 46786  53.0542 221.6106 0001542  73.3532 286.7626 15.06407885117825","BSTAR":"0.00015657000000","TIME_SYSTEM":"UTC","APOAPSIS":"548.257","ARG_OF_PERICENTER":"73.3532","DECAY_DATE":null,"CLASSIFICATION_TYPE":"U","MEAN_MOTION":"15.06407885","REV_AT_EPOCH":"11782","TLE_LINE1":"1 46786U 20074AZ  22342.39340258  .00002052  00000-0  15657-3 0  9997"},{"SITE":"AFETR","OBJECT_ID":"2020-074BA","MEAN_MOTION_DDOT":"0.0000000000000","ELEMENT_SET_NO":"999","ECCENTRICITY":"0.00016960","OBJECT_NAME":"STARLINK-1899","FILE":"3684614","TLE_LINE1":"1 46787U 20074BA  22342.05430407 -.00001285  00000-0 -67362-4 0  9997","REV_AT_EPOCH":"11809","DECAY_DATE":null,"CLASSIFICATION_TYPE":"U","MEAN_MOTION":"15.06402842","APOAPSIS":"548.379","ARG_OF_PERICENTER":"69.8800","TIME_SYSTEM":"UTC","BSTAR":"-0.00006736200000","TLE_LINE2":"2 46787  53.0555 223.1284 0001696  69.8800 290.2372 15.06402842118098","RCS_SIZE":"LARGE","EPOCH":"2022-12-08T01:18:11.871648","PERIAPSIS":"546.030","MEAN_ANOMALY":"290.2372","LAUNCH_DATE":"2020-10-24","EPHEMERIS_TYPE":"0","OBJECT_TYPE":"PAYLOAD","NORAD_CAT_ID":"46787","CENTER_NAME":"EARTH","SEMIMAJOR_AXIS":"6925.340","COUNTRY_CODE":"US","INCLINATION":"53.0555","MEAN_ELEMENT_THEORY":"SGP4","PERIOD":"95.592","RA_OF_ASC_NODE":"223.1284","GP_ID":"219772769","REF_FRAME":"TEME","MEAN_MOTION_DOT":"-0.00001285"}];
